[{"OBJECT_NAME":"STARLINK-4308","OBJECT_ID":"2022-077U","EPOCH":"2026-03-09T22:42:53.272224","MEAN_MOTION":15.01259327,"ECCENTRICITY":7.509e-5,"INCLINATION":97.6014,"RA_OF_ASC_NODE":250.4609,"ARG_OF_PERICENTER":177.667,"MEAN_ANOMALY":182.4558,"EPHEMERIS_TYPE":0,"CLASSIFICATION_TYPE":"U","NORAD_CAT_ID":53061,"ELEMENT_SET_NO":999,"REV_AT_EPOCH":20095,"BSTAR":-1.7335988e-5,"MEAN_MOTION_DOT":-2.81e-6,"MEAN_MOTION_DDOT":0},{"OBJECT_NAME":"EINSTEIN PROBE","OBJECT_ID":"2024-007A","EPOCH":"2026-03-09T14:28:05.763072","MEAN_MOTION":15.01336938,"ECCENTRICITY":0.0009522,"INCLINATION":28.998,"RA_OF_ASC_NODE":140.909,"ARG_OF_PERICENTER":248.3814,"MEAN_ANOMALY":111.577,"EPHEMERIS_TYPE":0,"CLASSIFICATION_TYPE":"U","NORAD_CAT_ID":58753,"ELEMENT_SET_NO":999,"REV_AT_EPOCH":11858,"BSTAR":0.00031977,"MEAN_MOTION_DOT":4.372e-5,"MEAN_MOTION_DDOT":0}]
